{
  "type": "FeatureCollection",
  "features": [
    {
      "type": "Feature",
      "properties": {
        "norad_id": 24876,
        "name": "GPS BIIR-2  (PRN 13)",
        "group": "gnss",
        "lat": -11.592450296921646,
        "lon": -66.36470614428511,
        "alt_km": 20370.89303336559,
        "timestamp": "2025-12-17T23:38:07.095393+00:00",
        "meta_object_name": "GPS BIIR-2  (PRN 13)",
        "meta_object_id": "1997-035A",
        "meta_epoch": "2025-12-16T17:18:41.060448",
        "meta_mean_motion": 2.00563709,
        "meta_eccentricity": 0.00967839,
        "meta_inclination": 55.8971,
        "meta_ra_of_asc_node": 105.7131,
        "meta_arg_of_pericenter": 56.9876,
        "meta_mean_anomaly": 303.9087,
        "meta_ephemeris_type": 0,
        "meta_classification_type": "U",
        "meta_norad_cat_id": 24876,
        "meta_element_set_no": 999,
        "meta_rev_at_epoch": 20829,
        "meta_bstar": 0,
        "meta_mean_motion_dot": -2.3e-07,
        "meta_mean_motion_ddot": 0,
        "tle_line1": "1 24876U 97035A   25350.72130857 -.00000023  00000+0  00000+0 0  9993",
        "tle_line2": "2 24876  55.8971 105.7131 0096783  56.9876 303.9087  2.00563709208299"
      },
      "geometry": {
        "type": "Point",
        "coordinates": [
          -66.36470614428511,
          -11.592450296921646
        ]
      }
    },
    {
      "type": "Feature",
      "properties": {
        "norad_id": 26360,
        "name": "GPS BIIR-4  (PRN 20)",
        "group": "gnss",
        "lat": -52.173342663015305,
        "lon": -37.55956941574614,
        "alt_km": 20111.734960932125,
        "timestamp": "2025-12-17T23:38:07.095439+00:00",
        "meta_object_name": "GPS BIIR-4  (PRN 20)",
        "meta_object_id": "2000-025A",
        "meta_epoch": "2025-12-16T19:52:20.548704",
        "meta_mean_motion": 2.00567475,
        "meta_eccentricity": 0.00388903,
        "meta_inclination": 55.0476,
        "meta_ra_of_asc_node": 26.6725,
        "meta_arg_of_pericenter": 242.3816,
        "meta_mean_anomaly": 287.5593,
        "meta_ephemeris_type": 0,
        "meta_classification_type": "U",
        "meta_norad_cat_id": 26360,
        "meta_element_set_no": 999,
        "meta_rev_at_epoch": 18761,
        "meta_bstar": 0,
        "meta_mean_motion_dot": -8.3e-07,
        "meta_mean_motion_ddot": 0,
        "tle_line1": "1 26360U 00025A   25350.82801561 -.00000083  00000+0  00000+0 0  9990",
        "tle_line2": "2 26360  55.0476  26.6725 0038890 242.3816 287.5593  2.00567475187616"
      },
      "geometry": {
        "type": "Point",
        "coordinates": [
          -37.55956941574614,
          -52.173342663015305
        ]
      }
    },
    {
      "type": "Feature",
      "properties": {
        "norad_id": 26407,
        "name": "GPS BIIR-5  (PRN 22)",
        "group": "gnss",
        "lat": 42.24676122868131,
        "lon": 2.6859877447719565,
        "alt_km": 20509.775828585236,
        "timestamp": "2025-12-17T23:38:07.095457+00:00",
        "meta_object_name": "GPS BIIR-5  (PRN 22)",
        "meta_object_id": "2000-040A",
        "meta_epoch": "2025-12-17T13:07:08.215968",
        "meta_mean_motion": 2.00568099,
        "meta_eccentricity": 0.0125756,
        "meta_inclination": 54.8897,
        "meta_ra_of_asc_node": 222.3778,
        "meta_arg_of_pericenter": 301.8897,
        "meta_mean_anomaly": 226.5653,
        "meta_ephemeris_type": 0,
        "meta_classification_type": "U",
        "meta_norad_cat_id": 26407,
        "meta_element_set_no": 999,
        "meta_rev_at_epoch": 18630,
        "meta_bstar": 0,
        "meta_mean_motion_dot": 7.1e-07,
        "meta_mean_motion_ddot": 0,
        "tle_line1": "1 26407U 00040A   25351.54662287  .00000071  00000+0  00000+0 0  9995",
        "tle_line2": "2 26407  54.8897 222.3778 0125756 301.8897 226.5653  2.00568099186301"
      },
      "geometry": {
        "type": "Point",
        "coordinates": [
          2.6859877447719565,
          42.24676122868131
        ]
      }
    },
    {
      "type": "Feature",
      "properties": {
        "norad_id": 27663,
        "name": "GPS BIIR-8  (PRN 16)",
        "group": "gnss",
        "lat": -53.68092292204309,
        "lon": 114.98905537116933,
        "alt_km": 20532.460764885236,
        "timestamp": "2025-12-17T23:38:07.095475+00:00",
        "meta_object_name": "GPS BIIR-8  (PRN 16)",
        "meta_object_id": "2003-005A",
        "meta_epoch": "2025-12-17T15:19:29.390304",
        "meta_mean_motion": 2.00570709,
        "meta_eccentricity": 0.01476333,
        "meta_inclination": 54.9222,
        "meta_ra_of_asc_node": 222.1834,
        "meta_arg_of_pericenter": 51.8674,
        "meta_mean_anomaly": 318.886,
        "meta_ephemeris_type": 0,
        "meta_classification_type": "U",
        "meta_norad_cat_id": 27663,
        "meta_element_set_no": 999,
        "meta_rev_at_epoch": 16767,
        "meta_bstar": 0,
        "meta_mean_motion_dot": 7.2e-07,
        "meta_mean_motion_ddot": 0,
        "tle_line1": "1 27663U 03005A   25351.63853461  .00000072  00000+0  00000+0 0  9991",
        "tle_line2": "2 27663  54.9222 222.1834 0147633  51.8674 318.8860  2.00570709167678"
      },
      "geometry": {
        "type": "Point",
        "coordinates": [
          114.98905537116933,
          -53.68092292204309
        ]
      }
    },
    {
      "type": "Feature",
      "properties": {
        "norad_id": 28190,
        "name": "GPS BIIR-11 (PRN 19)",
        "group": "gnss",
        "lat": 44.091145756441676,
        "lon": -34.29986123743621,
        "alt_km": 20270.84349471543,
        "timestamp": "2025-12-17T23:38:07.095490+00:00",
        "meta_object_name": "GPS BIIR-11 (PRN 19)",
        "meta_object_id": "2004-009A",
        "meta_epoch": "2025-12-14T15:49:47.343936",
        "meta_mean_motion": 2.00560762,
        "meta_eccentricity": 0.01083648,
        "meta_inclination": 54.9839,
        "meta_ra_of_asc_node": 283.1415,
        "meta_arg_of_pericenter": 167.6892,
        "meta_mean_anomaly": 10.6801,
        "meta_ephemeris_type": 0,
        "meta_classification_type": "U",
        "meta_norad_cat_id": 28190,
        "meta_element_set_no": 999,
        "meta_rev_at_epoch": 15924,
        "meta_bstar": 0,
        "meta_mean_motion_dot": -7.9e-07,
        "meta_mean_motion_ddot": 0,
        "tle_line1": "1 28190U 04009A   25348.65957574 -.00000079  00000+0  00000+0 0  9998",
        "tle_line2": "2 28190  54.9839 283.1415 0108364 167.6892  10.6801  2.00560762159240"
      },
      "geometry": {
        "type": "Point",
        "coordinates": [
          -34.29986123743621,
          44.091145756441676
        ]
      }
    },
    {
      "type": "Feature",
      "properties": {
        "norad_id": 28474,
        "name": "GPS BIIR-13 (PRN 02)",
        "group": "gnss",
        "lat": 45.377971250231546,
        "lon": 107.46528629710039,
        "alt_km": 20624.295122747357,
        "timestamp": "2025-12-17T23:38:07.095504+00:00",
        "meta_object_name": "GPS BIIR-13 (PRN 02)",
        "meta_object_id": "2004-045A",
        "meta_epoch": "2025-12-17T13:48:23.319360",
        "meta_mean_motion": 2.00569852,
        "meta_eccentricity": 0.01708441,
        "meta_inclination": 55.2383,
        "meta_ra_of_asc_node": 332.2112,
        "meta_arg_of_pericenter": 309.4586,
        "meta_mean_anomaly": 234.4084,
        "meta_ephemeris_type": 0,
        "meta_classification_type": "U",
        "meta_norad_cat_id": 28474,
        "meta_element_set_no": 999,
        "meta_rev_at_epoch": 15478,
        "meta_bstar": 0,
        "meta_mean_motion_dot": -8.8e-07,
        "meta_mean_motion_ddot": 0,
        "tle_line1": "1 28474U 04045A   25351.57526990 -.00000088  00000+0  00000+0 0  9992",
        "tle_line2": "2 28474  55.2383 332.2112 0170844 309.4586 234.4084  2.00569852154783"
      },
      "geometry": {
        "type": "Point",
        "coordinates": [
          107.46528629710039,
          45.377971250231546
        ]
      }
    },
    {
      "type": "Feature",
      "properties": {
        "norad_id": 28874,
        "name": "GPS BIIRM-1 (PRN 17)",
        "group": "gnss",
        "lat": 53.700247216109766,
        "lon": -7.445964927556784,
        "alt_km": 20462.11925725393,
        "timestamp": "2025-12-17T23:38:07.095518+00:00",
        "meta_object_name": "GPS BIIRM-1 (PRN 17)",
        "meta_object_id": "2005-038A",
        "meta_epoch": "2025-12-15T21:22:37.236864",
        "meta_mean_motion": 2.00578274,
        "meta_eccentricity": 0.01315557,
        "meta_inclination": 55.0291,
        "meta_ra_of_asc_node": 280.574,
        "meta_arg_of_pericenter": 293.6034,
        "meta_mean_anomaly": 72.8859,
        "meta_ephemeris_type": 0,
        "meta_classification_type": "U",
        "meta_norad_cat_id": 28874,
        "meta_element_set_no": 999,
        "meta_rev_at_epoch": 14816,
        "meta_bstar": 0,
        "meta_mean_motion_dot": -6.8e-07,
        "meta_mean_motion_ddot": 0,
        "tle_line1": "1 28874U 05038A   25349.89070876 -.00000068  00000+0  00000+0 0  9996",
        "tle_line2": "2 28874  55.0291 280.5740 0131555 293.6034  72.8859  2.00578274148160"
      },
      "geometry": {
        "type": "Point",
        "coordinates": [
          -7.445964927556784,
          53.700247216109766
        ]
      }
    }
  ]
}